NORAD_CAT_ID,OBJECT_NAME,OBJECT_TYPE,EPOCH,MEAN_MOTION,ECCENTRICITY,INCLINATION,RA_OF_ASC_NODE,ARG_OF_PERICENTER,MEAN_ANOMALY,BSTAR,MEAN_MOTION_DOT,MEAN_MOTION_DDOT,TLE_LINE0,TLE_LINE1,TLE_LINE2,SEMIMAJOR_AXIS,PERIOD,APOGEE,PERIGEE,DECAYED
54208.0,STARLINK-5255,PAYLOAD,2023-02-16 21:51:16,15.74083159,0.0001559,53.2144,310.2573,67.8643,292.2543,0.00016471,0.00023449,0.0,0 STARLINK-5255,1 54208U 22141BD  23047.91060516  .00023449  00000-0  16471-3 0  9997,2 54208  53.2144 310.2573 0001559  67.8643 292.2543 15.74083159 17643,6725.378,91.482,348.292,346.195,0.0
54208.0,STARLINK-5255,PAYLOAD,2023-02-16 23:22:41,15.74104359,0.00014,53.2142,309.9396,102.7903,257.3274,0.0002127,0.00030519,0.0,0 STARLINK-5255,1 54208U 22141BD  23047.97409423  .00030519  00000-0  21270-3 0  9996,2 54208  53.2142 309.9396 0001400 102.7903 257.3274 15.74104359 17887,6725.318,91.481,348.125,346.241,0.0
54208.0,STARLINK-5255,PAYLOAD,2023-02-17 22:00:00,15.74144945,0.0001497,53.2142,305.2714,62.302,242.1996,-0.00052157,-0.00076182,0.0,0 STARLINK-5255,1 54208U 22141BD  23048.91667824 -.00076182  00000-0 -52157-3 0  9998,2 54208  53.2142 305.2714 0001497  62.3020 242.1996 15.74144945 18033,6725.202,91.478,348.074,346.061,0.0
54208.0,STARLINK-5255,PAYLOAD,2023-02-18 08:00:01,15.74078075,0.000132,53.2142,303.2067,70.1955,76.8799,9.6858e-05,0.00013511,0.0,0 STARLINK-5255,1 54208U 22141BD  23049.33335648  .00013511  00000-0  96858-4 0  9993,2 54208  53.2142 303.2067 0001320  70.1955  76.8799 15.74078075 18090,6725.393,91.482,348.146,346.37,0.0
54208.0,STARLINK-5255,PAYLOAD,2023-02-19 09:17:01,15.74059681,0.0001604,53.2141,297.9852,91.0203,269.1001,-3.6516e-05,-5.943e-05,0.0,0 STARLINK-5255,1 54208U 22141BD  23050.38682214 -.00005943  00000-0 -36516-4 0  9991,2 54208  53.2141 297.9852 0001604  91.0203 269.1001 15.74059681 18267,6725.445,91.483,348.389,346.232,0.0
54208.0,STARLINK-5255,PAYLOAD,2023-02-19 19:57:18,15.73461552,0.0002932,53.2139,295.785,193.4661,166.6282,-0.0016191,-0.00224477,0.0,0 STARLINK-5255,1 54208U 22141BD  23050.83146297 -.00224477  00000-0 -16191-2 0  9997,2 54208  53.2139 295.7850 0002932 193.4661 166.6282 15.73461552 18331,6727.15,91.518,350.987,347.042,0.0
54208.0,STARLINK-5255,PAYLOAD,2023-02-20 03:35:01,15.72800668,0.0001153,53.2135,294.2127,101.7052,258.4097,-0.0027856,-0.00368546,0.0,0 STARLINK-5255,1 54208U 22141BD  23051.14931746 -.00368546  00000-0 -27856-2 0  9999,2 54208  53.2135 294.2127 0001153 101.7052 258.4097 15.72800668 18381,6729.034,91.556,351.675,350.123,0.0
54208.0,STARLINK-5255,PAYLOAD,2023-02-20 14:00:01,15.71052912,0.0001032,53.2129,292.0711,118.3901,178.8397,-0.0088594,-0.01023868,0.0,0 STARLINK-5255,1 54208U 22141BD  23051.58334491 -.01023868  00000-0 -88594-2 0  9993,2 54208  53.2129 292.0711 0001032 118.3901 178.8397 15.71052912 18458,6734.024,91.658,356.584,355.194,0.0
54208.0,STARLINK-5255,PAYLOAD,2023-02-21 06:00:00,15.69586849,0.0001009,53.212,288.7876,82.7744,25.3295,-0.010339,-0.01112747,0.0,0 STARLINK-5255,1 54208U 22141BD  23052.25001157 -.01112747  00000-0 -10339-1 0  9994,2 54208  53.2120 288.7876 0001009  82.7744  25.3295 15.69586849 18558,6738.216,91.744,360.761,359.401,0.0
54208.0,STARLINK-5255,PAYLOAD,2023-02-21 14:00:01,15.68780282,0.0001148,53.212,287.1462,100.8336,91.3594,-0.0098183,-0.01030804,0.0,0 STARLINK-5255,1 54208U 22141BD  23052.58334491 -.01030804  00000-0 -98183-2 0  9997,2 54208  53.2120 287.1462 0001148 100.8336  91.3594 15.68780282  1301,6740.526,91.791,363.164,361.617,0.0
54208.0,STARLINK-5255,PAYLOAD,2023-02-21 22:00:00,15.68020675,0.000116,53.212,285.5102,86.7107,188.6469,-0.010259,-0.01042448,0.0,0 STARLINK-5255,1 54208U 22141BD  23052.91667824 -.01042448  00000-0 -10259-1 0  9997,2 54208  53.2120 285.5102 0001160  86.7107 188.6469 15.68020675 18656,6742.702,91.836,365.349,363.785,0.0
54208.0,STARLINK-5255,PAYLOAD,2023-02-22 00:00:00,15.6781575,0.0001041,53.2121,285.1014,75.9283,310.0802,-0.010003,-0.01011203,0.0,0 STARLINK-5255,1 54208U 22141BD  23053.00001157 -.01011203  00000-0 -10003-1 0  9991,2 54208  53.2121 285.1014 0001041  75.9283 310.0802 15.67815750  1309,6743.29,91.848,365.857,364.453,0.0
54208.0,STARLINK-5255,PAYLOAD,2023-02-22 14:00:01,15.66512484,0.0001033,53.2124,282.2376,81.3494,357.5877,-0.010918,-0.01042823,0.0,0 STARLINK-5255,1 54208U 22141BD  23053.58334491 -.01042823  00000-0 -10918-1 0  9991,2 54208  53.2124 282.2376 0001033  81.3494 357.5877 15.66512484 18760,6747.029,91.924,369.591,368.197,0.0
54208.0,STARLINK-5255,PAYLOAD,2023-02-22 22:00:00,15.657334,0.0001301,53.2122,280.607,74.5936,84.781,-0.011083,-0.01027435,0.0,0 STARLINK-5255,1 54208U 22141BD  23053.91667824 -.01027435  00000-0 -11083-1 0  9993,2 54208  53.2122 280.6070 0001301  74.5936  84.7810 15.65733400  1304,6749.267,91.97,372.01,370.254,0.0
54208.0,STARLINK-5255,PAYLOAD,2023-02-23 06:00:00,15.650223,0.0001224,53.2118,278.9758,79.9586,158.9147,-0.012403,-0.01125741,0.0,0 STARLINK-5255,1 54208U 22141BD  23054.25001157 -.01125741  00000-0 -12403-1 0  9998,2 54208  53.2118 278.9758 0001224  79.9586 158.9147 15.65022300 18862,6751.312,92.011,374.003,372.35,0.0
54208.0,STARLINK-5255,PAYLOAD,2023-02-23 14:00:01,15.64241491,0.0001076,53.212,277.3458,94.3914,223.0813,-0.012117,-0.01054722,0.0,0 STARLINK-5255,1 54208U 22141BD  23054.58334491 -.01054722  00000-0 -12117-1 0  9996,2 54208  53.2120 277.3458 0001076  94.3914 223.0813 15.64241491  1304,6753.558,92.057,376.15,374.696,0.0
54208.0,STARLINK-5255,PAYLOAD,2023-02-23 22:00:00,15.63466979,0.0001125,53.2118,275.7209,72.3291,322.8393,-0.01234,-0.01042877,0.0,0 STARLINK-5255,1 54208U 22141BD  23054.91667824 -.01042877  00000-0 -12340-1 0  9998,2 54208  53.2118 275.7209 0001125  72.3291 322.8393 15.63466979 18977,6755.788,92.103,378.413,376.893,0.0
54208.0,STARLINK-5255,PAYLOAD,2023-02-24 14:00:01,15.61965159,0.0001296,53.2119,272.4705,98.2686,89.5273,-0.01331,-0.01075103,0.0,0 STARLINK-5255,1 54208U 22141BD  23055.58334491 -.01075103  00000-0 -13310-1 0  9999,2 54208  53.2119 272.4705 0001296  98.2686  89.5273 15.61965159 19075,6760.118,92.192,382.859,381.107,0.0
54208.0,STARLINK-5255,PAYLOAD,2023-02-24 22:00:00,15.61181351,0.0001215,53.2122,270.8512,88.5134,174.2424,-0.013322,-0.0104637,0.0,0 STARLINK-5255,1 54208U 22141BD  23055.91667824 -.01046370  00000-0 -13322-1 0  9992,2 54208  53.2122 270.8512 0001215  88.5134 174.2424 15.61181351  1309,6762.381,92.238,385.067,383.424,0.0
54208.0,STARLINK-5255,PAYLOAD,2023-02-25 14:00:01,15.59682766,0.0001121,53.2124,267.6119,89.0007,320.9066,-0.014471,-0.01070289,0.0,0 STARLINK-5255,1 54208U 22141BD  23056.58334491 -.01070289  00000-0 -14471-1 0  9999,2 54208  53.2124 267.6119 0001121  89.0007 320.9066 15.59682766 19235,6766.711,92.326,389.335,387.818,0.0
54208.0,STARLINK-5255,PAYLOAD,2023-02-25 22:00:00,15.58902865,0.0001257,53.2122,265.9981,75.0688,47.0574,-0.014494,-0.01043083,0.0,0 STARLINK-5255,1 54208U 22141BD  23056.91667824 -.01043083  00000-0 -14494-1 0  9992,2 54208  53.2122 265.9981 0001257  75.0688  47.0574 15.58902865  1305,6768.968,92.373,391.684,389.982,0.0
54208.0,STARLINK-5255,PAYLOAD,2023-02-26 14:00:01,15.57399463,0.0001159,53.2119,262.77,99.3509,164.4536,-0.015634,-0.01060961,0.0,0 STARLINK-5255,1 54208U 22141BD  23057.58334491 -.01060961  00000-0 -15634-1 0  9998,2 54208  53.2119 262.7700 0001159  99.3509 164.4536 15.57399463 19389,6773.324,92.462,395.974,394.404,0.0
54208.0,STARLINK-5255,PAYLOAD,2023-02-27 00:00:00,15.56425018,0.0001104,53.2118,260.7596,70.6394,9.8731,-0.015593,-0.01023632,0.0,0 STARLINK-5255,1 54208U 22141BD  23058.00001157 -.01023632  00000-0 -15593-1 0  9994,2 54208  53.2118 260.7596 0001104  70.6394   9.8731 15.56425018  1300,6776.15,92.52,398.764,397.267,0.0
54208.0,STARLINK-5255,PAYLOAD,2023-02-27 06:00:00,15.55875992,9.43e-05,53.2119,259.552,83.4921,318.3544,-0.016707,-0.01069872,0.0,0 STARLINK-5255,1 54208U 22141BD  23058.25001157 -.01069872  00000-0 -16707-1 0  9995,2 54208  53.2119 259.5520 0000943  83.4921 318.3544 15.55875992 19490,6777.744,92.552,400.249,398.97,0.0
54208.0,STARLINK-5255,PAYLOAD,2023-02-27 14:00:01,15.55126173,0.0001126,53.2122,257.9447,83.7977,25.6869,-0.017169,-0.01069343,0.0,0 STARLINK-5255,1 54208U 22141BD  23058.58334491 -.01069343  00000-0 -17169-1 0  9997,2 54208  53.2122 257.9447 0001126  83.7977  25.6869 15.55126173  1301,6779.923,92.597,402.551,401.024,0.0
54208.0,STARLINK-5255,PAYLOAD,2023-02-27 22:00:01,15.54329554,0.0001217,53.2123,256.3418,72.2906,104.0072,-0.016712,-0.01015753,0.0,0 STARLINK-5255,1 54208U 22141BD  23058.91668981 -.01015753  00000-0 -16712-1 0  9997,2 54208  53.2123 256.3418 0001217  72.2906 104.0072 15.54329554  1304,6782.239,92.644,404.93,403.279,0.0
54208.0,STARLINK-5255,PAYLOAD,2023-02-28 06:00:00,15.53597351,0.0001058,53.2122,254.7375,76.9929,165.0565,-0.01814,-0.01068042,0.0,0 STARLINK-5255,1 54208U 22141BD  23059.25001157 -.01068042  00000-0 -18140-1 0  9997,2 54208  53.2122 254.7375 0001058  76.9929 165.0565 15.53597351 19647,6784.37,92.688,406.953,405.517,0.0
54208.0,STARLINK-5255,PAYLOAD,2023-02-28 14:00:01,15.52861472,9.21e-05,53.2123,253.1359,82.7974,224.1488,-0.019059,-0.01090092,0.0,0 STARLINK-5255,1 54208U 22141BD  23059.58334491 -.01090092  00000-0 -19059-1 0  9993,2 54208  53.2123 253.1359 0000921  82.7974 224.1488 15.52861472  1308,6786.513,92.732,409.003,407.753,0.0
54208.0,STARLINK-5255,PAYLOAD,2023-02-28 22:00:00,15.52053996,0.0001037,53.212,251.5385,69.064,301.8958,-0.018234,-0.01019508,0.0,0 STARLINK-5255,1 54208U 22141BD  23059.91667824 -.01019508  00000-0 -18234-1 0  9996,2 54208  53.2120 251.5385 0001037  69.0640 301.8958 15.52053996  1302,6788.867,92.78,411.436,410.028,0.0
54208.0,STARLINK-5255,PAYLOAD,2023-03-01 06:00:00,15.51309646,0.0001001,53.2116,249.9395,80.2562,353.7855,-0.019313,-0.01048365,0.0,0 STARLINK-5255,1 54208U 22141BD  23060.25001157 -.01048365  00000-0 -19313-1 0  9998,2 54208  53.2116 249.9395 0001001  80.2562 353.7855 15.51309646 19809,6791.038,92.825,413.583,412.224,0.0
